{"type":"FeatureCollection","features":[{"type":"Feature","properties":{"name":"","desc":"Transform Fault"},"geometry":{"type":"LineString","coordinates":[[123.793691,15.591248],[122.699959,15.727207]]}},{"type":"Feature","properties":{"name":"","desc":"Trace approximate"},"geometry":{"type":"LineString","coordinates":[[125.605719,6.432827],[125.488889,6.490313],[125.388664,6.527618],[125.291951,6.605065]]}},{"type":"Feature","properties":{"name":"","desc":"Trace approximate"},"geometry":{"type":"LineString","coordinates":[[125.247698,6.441223],[125.21138,6.555211],[125.164921,6.649157],[125.088493,6.786759]]}},{"type":"Feature","properties":{"name":"","desc":"Trace approximate"},"geometry":{"type":"LineString","coordinates":[[125.141352,6.619127],[125.054408,6.64628],[124.954174,6.703609]]}},{"type":"Feature","properties":{"name":"","desc":"Trace approximate"},"geometry":{"type":"LineString","coordinates":[[124.980405,6.562873],[124.927211,6.660186],[124.890565,6.710556],[124.86051,6.734111]]}},{"type":"Feature","properties":{"name":"","desc":"Trace approximate"},"geometry":{"type":"LineString","coordinates":[[124.862385,6.335619],[124.80591,6.456373],[124.759145,6.486676],[124.712396,6.523674],[124.685733,6.560602],[124.669101,6.594147]]}},{"type":"Feature","properties":{"name":"","desc":"Trace approximate"},"geometry":{"type":"LineString","coordinates":[[124.586904,5.994925],[124.536942,6.072099],[124.466916,6.159376],[124.366754,6.250077]]}},{"type":"Feature","properties":{"name":"","desc":"Trace approximate"},"geometry":{"type":"LineString","coordinates":[[124.860844,5.890254],[124.780745,5.940748],[124.767592,6.011116],[124.764486,6.0848]]}},{"type":"Feature","properties":{"name":"","desc":"Trace approximate"},"geometry":{"type":"LineString","coordinates":[[124.184108,6.866853],[124.110538,6.937372],[124.050311,6.987756],[124.003433,7.014656]]}},{"type":"Feature","properties":{"name":"","desc":"Trace approximate"},"geometry":{"type":"LineString","coordinates":[[125.332593,7.374816],[125.356852,7.521977],[125.377861,7.682538],[125.382007,7.823104],[125.382179,7.853229]]}},{"type":"Feature","properties":{"name":"Central Mindanao Fault","desc":"Trace approximate"},"geometry":{"type":"LineString","coordinates":[[125.672976,7.660722],[125.603454,7.811755],[125.497211,8.003179],[125.357253,8.188108],[125.297127,8.248709]]}},{"type":"Feature","properties":{"name":"","desc":"Trace approximate"},"geometry":{"type":"LineString","coordinates":[[125.974494,7.106683],[125.921242,7.160558],[125.888166,7.227689],[125.872009,7.321483]]}},{"type":"Feature","properties":{"name":"PFZ: Mati Fault","desc":"Active Fault"},"geometry":{"type":"LineString","coordinates":[[126.197804,6.947971],[126.174913,7.028411],[126.148717,7.115567],[126.14913,7.17578],[126.169832,7.262614],[126.18064,7.369585],[126.174586,7.459948],[126.151972,7.577195]]}},{"type":"Feature","properties":{"name":"","desc":"Trace approximate"},"geometry":{"type":"LineString","coordinates":[[126.239988,6.750326],[126.170377,6.851143],[126.124067,6.935082],[126.100918,6.978725]]}},{"type":"Feature","properties":{"name":"","desc":"Trace approximate"},"geometry":{"type":"LineString","coordinates":[[126.084552,7.035707],[126.041701,7.139703],[126.018652,7.200077],[125.998949,7.260431],[125.972565,7.324175]]}},{"type":"Feature","properties":{"name":"PFZ: Eastern Mindanao Fault","desc":"Active Fault"},"geometry":{"type":"LineString","coordinates":[[125.97634,7.387721],[125.929817,7.448256],[125.90038,7.558869],[125.881068,7.679456],[125.868902,7.863572],[125.856381,7.994156],[125.827031,8.118166],[125.804134,8.205327],[125.774606,8.305586],[125.755036,8.38938]]}},{"type":"Feature","properties":{"name":"Central Mindanao Fault","desc":"Trace approximate"},"geometry":{"type":"LineString","coordinates":[[125.253802,8.31189],[125.224067,8.402443],[125.167856,8.570144],[125.124902,8.707643],[125.085161,8.82169]]}},{"type":"Feature","properties":{"name":"Cabanglasan Fault","desc":"Trace approximate"},"geometry":{"type":"LineString","coordinates":[[125.056901,8.577447],[124.932886,8.665141],[124.839035,8.739268],[124.765231,8.789846]]}},{"type":"Feature","properties":{"name":"","desc":"Trace approximate"},"geometry":{"type":"LineString","coordinates":[[125.363893,8.726315],[125.300177,8.760181],[125.263532,8.820657],[125.240217,8.860967]]}},{"type":"Feature","properties":{"name":"","desc":"Trace approximate"},"geometry":{"type":"LineString","coordinates":[[125.404953,8.833166],[125.304373,8.894051],[125.23073,8.96145],[125.170448,9.015372]]}},{"type":"Feature","properties":{"name":"","desc":"Trace approximate"},"geometry":{"type":"LineString","coordinates":[[125.458704,8.81943],[125.405345,8.893413],[125.385564,8.957136]]}},{"type":"Feature","properties":{"name":"","desc":"Active Fault"},"geometry":{"type":"LineString","coordinates":[[126.075289,8.092278],[125.915247,8.244019],[125.792043,8.395477],[125.712334,8.529892],[125.632976,8.721196]]}},{"type":"Feature","properties":{"name":"PFZ: Lianga Fault","desc":"Active Fault"},"geometry":{"type":"LineString","coordinates":[[126.380545,8.464442],[126.263346,8.508922],[126.216533,8.536072]]}},{"type":"Feature","properties":{"name":"PFZ: Lianga Fault","desc":"Active Fault"},"geometry":{"type":"LineString","coordinates":[[126.149385,8.543314],[126.012024,8.597937],[125.871374,8.669278],[125.784396,8.730154],[125.73105,8.794123]]}},{"type":"Feature","properties":{"name":"","desc":"Active Fault"},"geometry":{"type":"LineString","coordinates":[[125.676486,8.690773],[125.646785,8.771299],[125.617431,8.902022],[125.591675,9.06619],[125.585713,9.173326]]}},{"type":"Feature","properties":{"name":"East Bohol Fault","desc":"Trace approximate"},"geometry":{"type":"LineString","coordinates":[[124.081369,9.596351],[124.396098,9.820733]]}},{"type":"Feature","properties":{"name":"Cebu Lineament","desc":"Trace approximate"},"geometry":{"type":"LineString","coordinates":[[123.435678,9.619248],[123.48279,9.765981],[123.562499,9.944874]]}},{"type":"Feature","properties":{"name":"Cebu Lineament","desc":"Trace approximate"},"geometry":{"type":"LineString","coordinates":[[123.349171,9.698116],[123.486736,9.995117]]}},{"type":"Feature","properties":{"name":"Cebu Lineament","desc":"Trace approximate"},"geometry":{"type":"LineString","coordinates":[[123.617034,10.13811],[123.707636,10.259652],[123.888931,10.459683]]}},{"type":"Feature","properties":{"name":"Cebu Lineament","desc":"Trace approximate"},"geometry":{"type":"LineString","coordinates":[[123.686142,10.349201],[123.849156,10.463372],[123.914312,10.481091]]}},{"type":"Feature","properties":{"name":"Central Negros Fault","desc":"Trace approximate"},"geometry":{"type":"LineString","coordinates":[[122.901581,10.045226],[123.046097,10.138328],[123.295566,10.281412]]}},{"type":"Feature","properties":{"name":"Central Negros Fault","desc":"Trace approximate"},"geometry":{"type":"LineString","coordinates":[[123.024384,9.708677],[122.832996,9.941366]]}},{"type":"Feature","properties":{"name":"Central Negros Fault","desc":"Trace approximate"},"geometry":{"type":"LineString","coordinates":[[122.862123,9.361339],[122.937821,9.429391],[122.991908,9.526071],[123.046018,9.569035]]}},{"type":"Feature","properties":{"name":"Central Negros Fault","desc":"Trace approximate"},"geometry":{"type":"LineString","coordinates":[[123.031542,9.053433],[123.01354,9.282593]]}},{"type":"Feature","properties":{"name":"Central Negros Fault","desc":"Trace approximate"},"geometry":{"type":"LineString","coordinates":[[123.063973,9.121461],[123.182906,9.200193],[123.244208,9.261027]]}},{"type":"Feature","properties":{"name":"West Panay Fault","desc":"Trace approximate"},"geometry":{"type":"LineString","coordinates":[[122.079997,10.586323],[122.101571,10.632924],[122.177375,10.704731],[122.263972,10.819507],[122.336056,10.973611],[122.357577,11.073897],[122.35742,11.145496],[122.34636,11.227811]]}},{"type":"Feature","properties":{"name":"West Panay Fault","desc":"Trace approximate"},"geometry":{"type":"LineString","coordinates":[[122.292253,11.10955],[122.277381,11.25987],[122.24429,11.43162],[122.243908,11.574811],[122.243434,11.749861]]}},{"type":"Feature","properties":{"name":"Southern Samar Lineament","desc":"Trace approximate"},"geometry":{"type":"LineString","coordinates":[[125.366546,11.184868],[125.278018,11.292184],[125.219154,11.388233],[125.149489,11.539512]]}},{"type":"Feature","properties":{"name":"Southern Samar Lineament","desc":"Trace approximate"},"geometry":{"type":"LineString","coordinates":[[125.239324,11.104955],[125.206568,11.204477],[125.196064,11.292803],[125.192928,11.370044]]}},{"type":"Feature","properties":{"name":"PFZ: Central Leyte Fault","desc":"Active Fault"},"geometry":{"type":"LineString","coordinates":[[125.313371,9.934187],[125.252501,10.05159],[125.199354,10.126396],[125.169223,10.142032],[125.103875,10.363105],[125.045677,10.551035],[124.983327,10.68015],[124.942826,10.742926],[124.920791,10.787196],[124.86164,10.846403],[124.798723,10.901946],[124.743463,10.997895],[124.643834,11.156612],[124.544006,11.296919],[124.477416,11.392897],[124.381001,11.500043],[124.343861,11.533324]]}},{"type":"Feature","properties":{"name":"PFZ: Central Leyte Fault","desc":"Active Fault"},"geometry":{"type":"LineString","coordinates":[[124.985299,10.407991],[124.993363,10.507238],[124.983327,10.68015]]}},{"type":"Feature","properties":{"name":"PFZ: Central Leyte Fault","desc":"Active Fault"},"geometry":{"type":"LineString","coordinates":[[124.643834,11.156612],[124.559112,11.333623],[124.507279,11.400102]]}},{"type":"Feature","properties":{"name":"Central Samar Lineament","desc":"Trace approximate"},"geometry":{"type":"LineString","coordinates":[[124.901071,11.750132],[124.924052,11.834561],[124.951392,12.003536]]}},{"type":"Feature","properties":{"name":"Northern Samar Lineament","desc":"Trace approximate"},"geometry":{"type":"LineString","coordinates":[[124.526512,12.182728],[124.452421,12.308188],[124.39296,12.382063],[124.355752,12.422713]]}},{"type":"Feature","properties":{"name":"PFZ: Masbate Fault","desc":"Active Fault"},"geometry":{"type":"LineString","coordinates":[[124.091478,11.861062],[123.998508,11.971772],[123.879332,12.093577],[123.789882,12.185821],[123.748932,12.252158]]}},{"type":"Feature","properties":{"name":"PFZ: Masbate Fault","desc":"Active Fault"},"geometry":{"type":"LineString","coordinates":[[124.069516,11.975189],[123.957758,12.071244],[123.827428,12.233537]]}},{"type":"Feature","properties":{"name":"","desc":"approximate offshore projection"},"geometry":{"type":"LineString","coordinates":[[124.343861,11.533324],[124.239915,11.64709],[124.135978,11.783633],[124.091478,11.861062]]}},{"type":"Feature","properties":{"name":"","desc":"approximate offshore projection"},"geometry":{"type":"LineString","coordinates":[[124.507279,11.400102],[124.407434,11.565393],[124.285035,11.720464],[124.166222,11.8718],[124.069516,11.975189]]}},{"type":"Feature","properties":{"name":"Central Marinduque Fault","desc":"Active Fault"},"geometry":{"type":"LineString","coordinates":[[122.046749,13.277882],[121.956286,13.354775],[121.922247,13.40613],[121.888261,13.442766]]}},{"type":"Feature","properties":{"name":"","desc":"approximate offshore projection"},"geometry":{"type":"LineString","coordinates":[[121.973971,13.612338],[122.173916,13.43283],[122.456332,13.187114],[122.651814,13.01454],[122.89202,12.841833],[123.116918,12.683626],[123.341595,12.569378],[123.517432,12.469761],[123.644434,12.351758],[123.748932,12.252158]]}},{"type":"Feature","properties":{"name":"","desc":"approximate offshore projection"},"geometry":{"type":"LineString","coordinates":[[123.748932,12.252158],[123.547422,12.488097],[123.390392,12.639215],[123.24814,12.757118],[123.064518,12.922788],[122.970739,13.018452],[122.888142,13.128801],[122.797939,13.26487],[122.703904,13.378826],[122.639855,13.492789]]}},{"type":"Feature","properties":{"name":"","desc":"Trace approximate"},"geometry":{"type":"LineString","coordinates":[[122.639855,13.492789],[122.511813,13.602938],[122.364671,13.775505],[122.217486,13.896105]]}},{"type":"Feature","properties":{"name":"","desc":"approximate offshore projection"},"geometry":{"type":"LineString","coordinates":[[122.217486,13.896105],[122.070178,14.009619],[121.911404,14.12666],[121.733288,14.302329]]}},{"type":"Feature","properties":{"name":"Lubang Fault","desc":"approximate offshore projection"},"geometry":{"type":"LineString","coordinates":[[120.097336,14.019278],[120.366127,13.882688],[120.687538,13.720514],[120.989643,13.572406],[120.99716,13.572467]]}},{"type":"Feature","properties":{"name":"Lubang Fault","desc":"approximate offshore projection"},"geometry":{"type":"LineString","coordinates":[[120.305502,13.591682],[120.519812,13.579205],[120.801805,13.563469],[120.937186,13.553594],[120.99716,13.572467]]}},{"type":"Feature","properties":{"name":"Lubang Fault","desc":"approximate offshore projection"},"geometry":{"type":"LineString","coordinates":[[120.99716,13.572467],[121.144057,13.533154],[121.339946,13.468334],[121.460517,13.417613]]}},{"type":"Feature","properties":{"name":"Valley Fault System","desc":"Active Fault"},"geometry":{"type":"LineString","coordinates":[[121.044218,14.180001],[121.0356,14.304943],[121.038474,14.407917],[121.048504,14.555071],[121.085071,14.691415],[121.118686,14.735813],[121.151909,14.828003],[121.188475,14.975371],[121.195731,15.012197]]}},{"type":"Feature","properties":{"name":"Southern Mindoro Fault","desc":"Active Fault"},"geometry":{"type":"LineString","coordinates":[[121.202614,12.260517],[121.203123,12.371373],[121.238597,12.428001],[121.320693,12.488445],[121.352754,12.523891],[121.384757,12.56991],[121.413247,12.60533]]}},{"type":"Feature","properties":{"name":"Central Mindoro Fault","desc":"Active Fault"},"geometry":{"type":"LineString","coordinates":[[121.456839,12.517459],[121.413247,12.60533]]}},{"type":"Feature","properties":{"name":"Central Mindoro Fault","desc":"Active Fault"},"geometry":{"type":"LineString","coordinates":[[121.191374,13.019815],[121.151497,13.065351],[121.122177,13.139151],[121.1036,13.216549],[121.077868,13.286842],[121.052316,13.332461],[121.026783,13.374553],[121.019152,13.427355],[121.018891,13.459069]]}},{"type":"Feature","properties":{"name":"","desc":"approximate offshore projection"},"geometry":{"type":"LineString","coordinates":[[124.028565,12.010398],[123.899542,12.215373],[123.77615,12.366966],[123.656892,12.518499],[123.524706,12.691012],[123.362351,12.846706],[123.195512,13.002305],[123.015609,13.208206],[122.904078,13.363607],[122.792426,13.493754],[122.693537,13.623864],[122.607485,13.720349],[122.512811,13.795785]]}},{"type":"Feature","properties":{"name":"PFZ: Guinyangan Fault","desc":"Active Fault"},"geometry":{"type":"LineString","coordinates":[[122.512811,13.795785],[122.357705,13.938231],[122.275795,14.004781]]}},{"type":"Feature","properties":{"name":"","desc":"approximate offshore projection"},"geometry":{"type":"LineString","coordinates":[[122.275795,14.004781],[122.107461,14.155412],[122.0038,14.238997],[121.964822,14.289226],[121.908496,14.360365],[121.860558,14.469324],[121.790737,14.628547],[121.751259,14.745495],[121.681257,14.904668],[121.589374,15.088868],[121.480202,15.247708],[121.410158,15.360579]]}},{"type":"Feature","properties":{"name":"East Zambales Fault","desc":"Active Fault"},"geometry":{"type":"LineString","coordinates":[[120.432552,15.359852],[120.343242,15.581185],[120.240595,15.810671],[120.103287,16.018631]]}},{"type":"Feature","properties":{"name":"Iba Fault","desc":"Active Fault"},"geometry":{"type":"LineString","coordinates":[[120.236961,15.243406],[120.119849,15.275494],[120.05445,15.316593],[120.0149,15.362211]]}},{"type":"Feature","properties":{"name":"Iba Fault","desc":"Active Fault"},"geometry":{"type":"LineString","coordinates":[[120.220339,15.192854],[120.120364,15.237744],[120.051067,15.249429],[120.007866,15.248856]]}},{"type":"Feature","properties":{"name":"PFZ: Tubao Fault","desc":"Active Fault"},"geometry":{"type":"LineString","coordinates":[[120.792916,16.03523],[120.666448,16.088446],[120.592112,16.133781],[120.521615,16.216895],[120.472076,16.354778],[120.461533,16.497311],[120.455034,16.660869],[120.462128,16.782634],[120.473935,16.877604],[120.490641,16.932354],[120.499136,16.949242]]}},{"type":"Feature","properties":{"name":"","desc":"Active Fault"},"geometry":{"type":"LineString","coordinates":[[120.412212,16.608312],[120.406052,16.742496]]}},{"type":"Feature","properties":{"name":"","desc":"Active Fault"},"geometry":{"type":"LineString","coordinates":[[121.354566,16.349249],[121.480194,16.408967],[121.658085,16.473154]]}},{"type":"Feature","properties":{"name":"","desc":"Trace approximate"},"geometry":{"type":"LineString","coordinates":[[121.897182,7.238166],[121.959385,7.179147]]}},{"type":"Feature","properties":{"name":"Zamboanga Fault System","desc":"Active Fault"},"geometry":{"type":"LineString","coordinates":[[122.077546,7.33718],[122.114343,7.280903],[122.165331,7.173932]]}},{"type":"Feature","properties":{"name":"Zamboanga Fault System","desc":"Active Fault"},"geometry":{"type":"LineString","coordinates":[[122.094687,7.232967],[122.159522,7.264084],[122.238448,7.312123],[122.275102,7.331907]]}},{"type":"Feature","properties":{"name":"","desc":"Trace approximate"},"geometry":{"type":"LineString","coordinates":[[122.407502,7.513211],[122.31723,7.46518],[122.190304,7.405797],[122.187289,7.510041],[122.167403,7.574807],[122.147582,7.602944]]}},{"type":"Feature","properties":{"name":"","desc":"Trace approximate"},"geometry":{"type":"LineString","coordinates":[[122.296949,7.783537],[122.387262,7.845665],[122.553855,7.955765]]}},{"type":"Feature","properties":{"name":"","desc":"Trace approximate"},"geometry":{"type":"LineString","coordinates":[[122.969744,7.781301],[123.000822,7.806662],[123.060159,7.826383],[123.094073,7.854554]]}},{"type":"Feature","properties":{"name":"","desc":"Trace approximate"},"geometry":{"type":"LineString","coordinates":[[123.445818,7.754058],[123.307441,7.821807],[123.19728,7.895134],[123.115346,7.971245]]}},{"type":"Feature","properties":{"name":"","desc":"Trace approximate"},"geometry":{"type":"LineString","coordinates":[[122.883554,8.018019],[122.776106,8.065876],[122.711058,8.09683],[122.679934,8.124984]]}},{"type":"Feature","properties":{"name":"","desc":"Trace approximate"},"geometry":{"type":"LineString","coordinates":[[122.223222,7.931611],[122.381292,8.058668]]}},{"type":"Feature","properties":{"name":"MF: Western Mindanao Extension","desc":"Active Fault"},"geometry":{"type":"LineString","coordinates":[[124.171633,7.695208],[124.036175,7.737817],[123.832997,7.836875],[123.677742,7.924498],[123.547846,8.003583],[123.482876,8.040294]]}},{"type":"Feature","properties":{"name":"","desc":"Trace approximate"},"geometry":{"type":"LineString","coordinates":[[123.821515,7.74392],[123.734113,7.839876],[123.615564,7.921777],[123.525204,7.981072],[123.460238,8.020596],[123.378341,8.108028]]}},{"type":"Feature","properties":{"name":"","desc":"Trace approximate"},"geometry":{"type":"LineString","coordinates":[[123.338721,8.065797],[123.245474,8.147578],[123.152181,8.212431],[123.126729,8.218076]]}},{"type":"Feature","properties":{"name":"MF: Western Mindanao Extension","desc":"Active Fault"},"geometry":{"type":"LineString","coordinates":[[123.253984,8.189838],[123.15502,8.23779],[123.067343,8.268809],[122.996627,8.296992],[122.965507,8.327985]]}},{"type":"Feature","properties":{"name":"","desc":"Trace approximate"},"geometry":{"type":"LineString","coordinates":[[123.248347,8.220837],[123.19747,8.285672],[123.092824,8.364606],[122.999456,8.426607]]}},{"type":"Feature","properties":{"name":"","desc":"approximate offshore projection"},"geometry":{"type":"LineString","coordinates":[[122.965507,8.327985],[122.886269,8.409684],[122.812639,8.530816],[122.733284,8.67447],[122.68789,8.781505]]}},{"type":"Feature","properties":{"name":"Lanao Fault System","desc":"Trace approximate"},"geometry":{"type":"LineString","coordinates":[[124.000594,7.847279],[124.109902,7.893195],[124.206092,7.97211],[124.269114,8.018109]]}},{"type":"Feature","properties":{"name":"","desc":"Active Fault"},"geometry":{"type":"LineString","coordinates":[[124.130018,7.98882],[124.202927,8.021607],[124.28254,8.077451],[124.368794,8.133254]]}},{"type":"Feature","properties":{"name":"","desc":"Active Fault"},"geometry":{"type":"LineString","coordinates":[[124.014094,7.956127],[124.087044,8.008732],[124.143385,8.034973],[124.173214,8.048086]]}},{"type":"Feature","properties":{"name":"","desc":"Active Fault"},"geometry":{"type":"LineString","coordinates":[[123.98776,8.01558],[124.063951,8.038486],[124.143385,8.034973]]}},{"type":"Feature","properties":{"name":"","desc":"Active Fault"},"geometry":{"type":"LineString","coordinates":[[124.11051,8.117545],[124.034336,8.107848],[124.007825,8.098016]]}},{"type":"Feature","properties":{"name":"","desc":"Active Fault"},"geometry":{"type":"LineString","coordinates":[[124.068956,8.05332],[124.025921,8.05343],[123.966303,8.040377],[123.943131,8.040431],[123.916678,8.053688],[123.886913,8.066952],[123.850503,8.070328],[123.814059,8.057204]]}},{"type":"Feature","properties":{"name":"","desc":"Active Fault"},"geometry":{"type":"LineString","coordinates":[[125.680995,8.93228],[125.6519,8.97502],[125.652365,9.038813],[125.636768,9.100064],[125.612989,9.140109],[125.568054,9.214863],[125.518247,9.358769],[125.48423,9.468005],[125.469006,9.585086],[125.44582,9.712858],[125.443625,9.779336]]}},{"type":"Feature","properties":{"name":"","desc":"Active Fault"},"geometry":{"type":"LineString","coordinates":[[125.585119,8.983469],[125.569453,9.036745],[125.562187,9.14313],[125.555168,9.252102],[125.583193,9.453999],[125.587153,9.624097],[125.587681,9.693207]]}},{"type":"Feature","properties":{"name":"Lake Bato Lineament","desc":"Active Fault"},"geometry":{"type":"LineString","coordinates":[[123.531281,13.217937],[123.404118,13.271155],[123.299199,13.342987],[123.2356,13.40539]]}},{"type":"Feature","properties":{"name":"","desc":"Active Fault"},"geometry":{"type":"LineString","coordinates":[[123.044591,13.511468],[122.964952,13.567572],[122.862958,13.642339],[122.840637,13.661027]]}},{"type":"Feature","properties":{"name":"","desc":"Active Fault"},"geometry":{"type":"LineString","coordinates":[[123.654454,12.877927],[123.524398,12.971725],[123.441899,13.046682],[123.375237,13.112241],[123.333965,13.162168]]}},{"type":"Feature","properties":{"name":"Dummon River Fault System","desc":"Trace approximate"},"geometry":{"type":"LineString","coordinates":[[121.689263,17.990619],[121.804815,18.051348],[121.923493,18.127024],[122.067125,18.250742],[122.201648,18.350326]]}},{"type":"Feature","properties":{"name":"Dummon River Fault System","desc":"Trace approximate"},"geometry":{"type":"LineString","coordinates":[[121.930003,18.088071],[122.020578,18.154535],[122.14865,18.269117]]}},{"type":"Feature","properties":{"name":"Dummon River Fault System","desc":"Trace approximate"},"geometry":{"type":"LineString","coordinates":[[121.923969,18.049049],[122.020862,18.10355],[122.146154,18.137138]]}},{"type":"Feature","properties":{"name":"","desc":"Trace approximate"},"geometry":{"type":"LineString","coordinates":[[121.763108,17.736183],[122.003425,17.857523],[122.16574,17.97526]]}},{"type":"Feature","properties":{"name":"","desc":"Active Fault"},"geometry":{"type":"LineString","coordinates":[[121.201226,17.908745],[121.291444,17.972528],[121.419366,18.033586],[121.500553,18.070218]]}},{"type":"Feature","properties":{"name":"","desc":"Active Fault"},"geometry":{"type":"LineString","coordinates":[[121.397263,18.051396],[121.450262,18.084814]]}},{"type":"Feature","properties":{"name":"","desc":"Active Fault"},"geometry":{"type":"LineString","coordinates":[[121.308077,17.870723],[121.391973,17.943401]]}},{"type":"Feature","properties":{"name":"","desc":"Active Fault"},"geometry":{"type":"LineString","coordinates":[[121.027427,18.326799],[121.098018,18.186601],[121.168643,18.031375],[121.191313,17.959627],[121.201226,17.908745],[121.230243,17.825054],[121.280845,17.771532],[121.306191,17.738768],[121.313568,17.618886],[121.320515,17.543978],[121.289512,17.516725],[121.255537,17.474449],[121.246795,17.408402],[121.247309,17.354431]]}},{"type":"Feature","properties":{"name":"","desc":"Trace approximate"},"geometry":{"type":"LineString","coordinates":[[120.911262,17.252264],[121.010264,17.331225],[121.115936,17.377224],[121.200154,17.386997],[121.246995,17.387414]]}},{"type":"Feature","properties":{"name":"","desc":"Trace approximate"},"geometry":{"type":"LineString","coordinates":[[121.067794,17.202856],[121.141971,17.27252],[121.175677,17.335799],[121.200154,17.386997]]}},{"type":"Feature","properties":{"name":"","desc":"Active Fault"},"geometry":{"type":"LineString","coordinates":[[121.283036,17.540658],[121.347937,17.622175],[121.409951,17.68266]]}},{"type":"Feature","properties":{"name":"","desc":"Active Fault"},"geometry":{"type":"LineString","coordinates":[[121.320515,17.543978],[121.404249,17.61964]]}},{"type":"Feature","properties":{"name":"","desc":"Active Fault"},"geometry":{"type":"LineString","coordinates":[[120.571197,18.405459],[120.635975,18.490204],[120.669918,18.535587]]}},{"type":"Feature","properties":{"name":"","desc":"Active Fault"},"geometry":{"type":"LineString","coordinates":[[120.412265,17.462261],[120.435306,17.600434],[120.456043,17.681629],[120.480132,17.74788],[120.497811,17.826037],[120.49401,17.873946],[120.496341,17.930924],[120.530445,17.95534],[120.576349,18.033851],[120.597381,18.100058],[120.626734,18.247297],[120.672101,18.37375],[120.711281,18.497125],[120.716967,18.542156]]}},{"type":"Feature","properties":{"name":"","desc":"approximate offshore projection"},"geometry":{"type":"LineString","coordinates":[[123.394923,17.410241],[123.433621,17.644511],[123.434009,17.805622]]}},{"type":"Feature","properties":{"name":"","desc":"approximate offshore projection"},"geometry":{"type":"LineString","coordinates":[[123.426538,17.878871],[123.480629,18.083791],[123.48101,18.222926],[123.46649,18.523196],[123.436252,18.706333]]}},{"type":"Feature","properties":{"name":"","desc":"approximate offshore projection"},"geometry":{"type":"LineString","coordinates":[[123.064016,17.589525],[123.064155,17.979067],[123.060093,18.12465],[123.060111,18.179735],[123.072493,18.258422],[123.076714,18.490558]]}},{"type":"Feature","properties":{"name":"","desc":"approximate offshore projection"},"geometry":{"type":"LineString","coordinates":[[122.02441,18.633224],[122.147517,18.771514],[122.258597,18.870339],[122.328505,18.957155],[122.3778,19.043876]]}},{"type":"Feature","properties":{"name":"","desc":"approximate offshore projection"},"geometry":{"type":"LineString","coordinates":[[121.81869,18.545501],[121.883881,18.667847],[121.978027,18.798201],[122.06409,18.920603],[122.142004,19.042931],[122.195019,19.200526],[122.276708,19.456569]]}},{"type":"Feature","properties":{"name":"","desc":"approximate offshore projection"},"geometry":{"type":"LineString","coordinates":[[121.71179,18.501532],[121.715413,18.568429],[121.751644,18.690616]]}},{"type":"Feature","properties":{"name":"","desc":"approximate offshore projection"},"geometry":{"type":"LineString","coordinates":[[122.015116,19.510014],[121.950563,19.867595]]}},{"type":"Feature","properties":{"name":"","desc":"approximate offshore projection"},"geometry":{"type":"LineString","coordinates":[[120.89653,18.617751],[120.937804,18.79628],[120.978846,18.99965],[120.977792,19.086604]]}},{"type":"Feature","properties":{"name":"","desc":"approximate offshore projection"},"geometry":{"type":"LineString","coordinates":[[120.97197,19.206633],[121.057726,19.327658],[121.168958,19.523455],[121.271162,19.768809],[121.314076,19.847907]]}},{"type":"Feature","properties":{"name":"","desc":"approximate offshore projection"},"geometry":{"type":"LineString","coordinates":[[121.436865,18.908822],[121.47937,19.021012],[121.534597,19.178859]]}},{"type":"Feature","properties":{"name":"","desc":"approximate offshore projection"},"geometry":{"type":"LineString","coordinates":[[120.716967,18.542156],[120.748277,18.661584],[120.768147,18.80261]]}},{"type":"Feature","properties":{"name":"","desc":"Active Fault"},"geometry":{"type":"LineString","coordinates":[[120.979038,15.793563],[120.951221,15.86544],[120.903051,15.937114],[120.834402,16.018403],[120.786186,16.086762],[120.771743,16.165298],[120.764109,16.240624],[120.736362,16.292785],[120.715579,16.328624],[120.667665,16.360883]]}},{"type":"Feature","properties":{"name":"","desc":"Active Fault"},"geometry":{"type":"LineString","coordinates":[[120.783259,16.102682],[120.714456,16.131906],[120.663241,16.160856],[120.625619,16.186666],[120.615049,16.21933]]}},{"type":"Feature","properties":{"name":"","desc":"Active Fault"},"geometry":{"type":"LineString","coordinates":[[120.735809,16.12284],[120.703753,16.177689],[120.679778,16.197099]]}},{"type":"Feature","properties":{"name":"","desc":"Active Fault"},"geometry":{"type":"LineString","coordinates":[[120.767548,16.206706],[120.780486,16.293253]]}},{"type":"Feature","properties":{"name":"","desc":"Trace approximate"},"geometry":{"type":"LineString","coordinates":[[121.224007,15.267702],[121.196336,15.34291],[121.151683,15.424531],[121.110731,15.466817]]}},{"type":"Feature","properties":{"name":"Philippine Fault Zone (PFZ): Digdig Fault","desc":"Active Fault"},"geometry":{"type":"LineString","coordinates":[[121.388639,15.38702],[121.293295,15.471579],[121.187323,15.601915],[121.087924,15.738801],[121.015551,15.869318],[120.946131,16.032618],[120.900751,16.156773],[120.879381,16.251645],[120.878181,16.36311],[120.90086,16.464978],[120.940763,16.547344],[120.946446,16.652321],[120.95918,16.734415],[120.968166,16.84926]]}},{"type":"Feature","properties":{"name":"Philippine Fault Zone (PFZ): Digdig Fault","desc":"Active Fault"},"geometry":{"type":"LineString","coordinates":[[120.850548,16.405452],[120.842886,16.484061],[120.814487,16.591958],[120.796515,16.677009],[120.795838,16.736014],[120.808657,16.804999]]}},{"type":"Feature","properties":{"name":"Casiguran Fault","desc":"Trace approximate"},"geometry":{"type":"LineString","coordinates":[[121.661765,16.015319],[121.729193,16.078049],[121.8172,16.111355],[121.915205,16.18404],[121.972774,16.210567]]}},{"type":"Feature","properties":{"name":"","desc":"approximate offshore projection"},"geometry":{"type":"LineString","coordinates":[[121.658985,15.923463],[121.750079,15.992891],[121.902152,16.088848],[121.942622,16.134975]]}},{"type":"Feature","properties":{"name":"Casiguran Fault","desc":"Trace approximate"},"geometry":{"type":"LineString","coordinates":[[121.942622,16.134975],[122.016988,16.194375],[122.094856,16.240645],[122.159049,16.316357],[122.22643,16.45767],[122.27374,16.533288]]}},{"type":"Feature","properties":{"name":"Casiguran Fault","desc":"Trace approximate"},"geometry":{"type":"LineString","coordinates":[[122.084258,16.329167],[122.216087,16.493715]]}},{"type":"Feature","properties":{"name":"","desc":"Trace approximate"},"geometry":{"type":"LineString","coordinates":[[121.687367,14.056835],[121.679928,14.181453],[121.672494,14.302789],[121.658413,14.407683]]}},{"type":"Feature","properties":{"name":"PFZ: Infanta Fault","desc":"Active Fault"},"geometry":{"type":"LineString","coordinates":[[121.733288,14.302329],[121.658413,14.407683]]}},{"type":"Feature","properties":{"name":"PFZ: Infanta Fault","desc":"Active Fault"},"geometry":{"type":"LineString","coordinates":[[121.658413,14.407683],[121.630907,14.502655],[121.606866,14.577961],[121.585817,14.709044],[121.588319,14.843548],[121.570744,14.951685],[121.533165,15.020328],[121.502357,15.082448],[121.491813,15.141418],[121.481449,15.174148]]}},{"type":"Feature","properties":{"name":"","desc":"Trace approximate"},"geometry":{"type":"LineString","coordinates":[[121.520184,14.944803],[121.479053,15.036373],[121.424452,15.117999],[121.366581,15.179905],[121.356145,15.219186],[121.355711,15.274939],[121.368692,15.343909],[121.388639,15.38702]]}},{"type":"Feature","properties":{"name":"","desc":"Trace approximate"},"geometry":{"type":"LineString","coordinates":[[121.332347,15.238689],[121.347284,15.055131],[121.351439,14.953487],[121.372198,14.884758],[121.393376,14.75699],[121.397226,14.691417]]}},{"type":"Feature","properties":{"name":"","desc":"Trace approximate"},"geometry":{"type":"LineString","coordinates":[[121.538856,14.675951],[121.528154,14.764448],[121.500895,14.806914],[121.497025,14.87905],[121.466255,14.937887],[121.45262,14.957475]]}},{"type":"Feature","properties":{"name":"","desc":"Trace approximate"},"geometry":{"type":"LineString","coordinates":[[121.274763,15.257932],[121.264224,15.307045],[121.256813,15.385698],[121.259839,15.428356],[121.293295,15.471579]]}},{"type":"Feature","properties":{"name":"","desc":"Trace approximate"},"geometry":{"type":"LineString","coordinates":[[121.630907,14.502655],[121.543154,14.53493],[121.397679,14.6291],[121.235369,14.706641],[121.204911,14.722806],[121.144315,14.715769],[121.117557,14.692596],[121.09791,14.626845],[121.078187,14.570931]]}},{"type":"Feature","properties":{"name":"","desc":"Trace approximate"},"geometry":{"type":"LineString","coordinates":[[121.351229,14.533658],[121.266545,14.598643],[121.225658,14.657371],[121.204911,14.722806]]}},{"type":"Feature","properties":{"name":"","desc":"Active Fault"},"geometry":{"type":"LineString","coordinates":[[120.87279,16.853211],[120.882382,16.909047],[120.90491,17.027308],[120.945083,17.093291]]}},{"type":"Feature","properties":{"name":"","desc":"Active Fault"},"geometry":{"type":"LineString","coordinates":[[121.018669,16.903855],[121.01781,16.985816],[121.047998,17.032011],[121.129201,17.091796],[121.190154,17.134977],[121.199974,17.177692],[121.229797,17.269769],[121.247309,17.354431]]}},{"type":"Feature","properties":{"name":"Divalacan Fault","desc":"Trace approximate"},"geometry":{"type":"LineString","coordinates":[[122.415741,16.807645],[122.388169,16.909254],[122.374355,16.964977],[122.37405,17.056823],[122.360152,17.132225],[122.32234,17.210826],[122.287972,17.273029],[122.270631,17.341849]]}},{"type":"Feature","properties":{"name":"Divalacan Fault","desc":"Trace approximate"},"geometry":{"type":"LineString","coordinates":[[122.21299,17.243229],[122.212474,17.364589],[122.188173,17.453052],[122.177671,17.508769]]}},{"type":"Feature","properties":{"name":"PFZ: Abra River Fault","desc":"Active Fault"},"geometry":{"type":"LineString","coordinates":[[120.659963,16.994805],[120.658123,17.142299],[120.662881,17.306257],[120.672365,17.634171],[120.68368,17.817871],[120.713596,17.887061],[120.771052,17.946733],[120.831811,18.019541]]}},{"type":"Feature","properties":{"name":"","desc":"Active Fault"},"geometry":{"type":"LineString","coordinates":[[120.777286,16.868263],[120.74258,16.923615],[120.714664,16.979035],[120.703847,17.028087],[120.703326,17.070697],[120.68925,17.106597],[120.658123,17.142299]]}},{"type":"Feature","properties":{"name":"West Ilocos Fault System","desc":"Active Fault"},"geometry":{"type":"LineString","coordinates":[[120.638127,18.279066],[120.658224,18.190915],[120.659489,18.095874],[120.609416,17.996927],[120.541916,17.923974],[120.525255,17.890986],[120.552726,17.884778],[120.651728,17.905664],[120.705529,17.9817],[120.772998,18.064438],[120.844118,18.134087],[120.966358,18.237046],[121.000363,18.263632]]}},{"type":"Feature","properties":{"name":"PFZ: Bangui Fault","desc":"Active Fault"},"geometry":{"type":"LineString","coordinates":[[121.126194,18.048517],[121.076964,18.162783],[121.000363,18.263632],[120.965288,18.328828],[120.902399,18.419936],[120.881354,18.455762]]}},{"type":"Feature","properties":{"name":"","desc":"Active Fault"},"geometry":{"type":"LineString","coordinates":[[120.796203,18.399065],[120.857312,18.455491],[120.881354,18.455762],[120.95282,18.512277],[121.020972,18.562178],[121.086057,18.58252],[121.171823,18.599764]]}},{"type":"Feature","properties":{"name":"","desc":"Active Fault"},"geometry":{"type":"LineString","coordinates":[[120.844118,18.134087],[120.778487,18.172677],[120.705928,18.214436],[120.622381,18.225469]]}},{"type":"Feature","properties":{"name":"","desc":"Active Fault"},"geometry":{"type":"LineString","coordinates":[[120.757853,18.045874],[120.758375,18.136385],[120.778487,18.172677],[120.788319,18.208849],[120.801088,18.284391],[120.841326,18.360246],[120.857312,18.455491],[120.89653,18.617751]]}},{"type":"Feature","properties":{"name":"","desc":"Trace approximate"},"geometry":{"type":"LineString","coordinates":[[121.911217,14.005373],[121.836563,14.035655],[121.763791,14.077408],[121.716544,14.109703],[121.681612,14.153271]]}},{"type":"Feature","properties":{"name":"Central Mindoro Fault","desc":"Active Fault"},"geometry":{"type":"LineString","coordinates":[[121.413247,12.60533],[121.398474,12.672215],[121.376779,12.696758],[121.322767,12.721095],[121.257564,12.805266],[121.21362,12.924807],[121.191374,13.019815]]}},{"type":"Feature","properties":{"name":"Aglubang River Fault","desc":"Active Fault"},"geometry":{"type":"LineString","coordinates":[[121.191374,13.019815],[121.176298,13.11487],[121.175777,13.185355],[121.197099,13.22075],[121.200359,13.266591],[121.171312,13.301628],[121.145856,13.336687],[121.130917,13.407063]]}},{"type":"Feature","properties":{"name":"","desc":"approximate offshore projection"},"geometry":{"type":"LineString","coordinates":[[122.243434,11.749861],[122.216754,11.899535]]}},{"type":"Feature","properties":{"name":"Tablas Fault","desc":"Active Fault"},"geometry":{"type":"LineString","coordinates":[[122.149982,12.661607],[122.018073,12.12168]]}},{"type":"Feature","properties":{"name":"","desc":"approximate offshore projection"},"geometry":{"type":"LineString","coordinates":[[122.191453,12.830945],[122.149982,12.661607]]}},{"type":"Feature","properties":{"name":"Mindanao Fault (MF): Daguma Extension","desc":"Active Fault"},"geometry":{"type":"LineString","coordinates":[[124.779146,6.134554],[124.751454,6.192006],[124.701618,6.302683],[124.624972,6.410096],[124.545021,6.540961],[124.448413,6.715411],[124.391825,6.84285],[124.361828,6.899875]]}},{"type":"Feature","properties":{"name":"","desc":"Trace approximate"},"geometry":{"type":"LineString","coordinates":[[124.361828,6.899875],[124.294933,6.950303],[124.171066,7.014268]]}},{"type":"Feature","properties":{"name":"","desc":"Trace approximate"},"geometry":{"type":"LineString","coordinates":[[125.085149,5.959773],[124.961449,5.970272],[124.881262,5.993993],[124.811266,6.067902],[124.779146,6.134554]]}},{"type":"Feature","properties":{"name":"","desc":"approximate offshore projection"},"geometry":{"type":"LineString","coordinates":[[125.731028,5.633471],[125.793273,5.844144],[125.815989,5.976497],[125.814313,6.126142],[125.773601,6.307886],[125.722814,6.440628],[125.661953,6.526816],[125.598582,6.605658]]}},{"type":"Feature","properties":{"name":"","desc":"approximate offshore projection"},"geometry":{"type":"LineString","coordinates":[[126.381111,6.525686],[126.314378,6.607836],[126.274792,6.678593],[126.239988,6.750326]]}},{"type":"Feature","properties":{"name":"","desc":"approximate offshore projection"},"geometry":{"type":"LineString","coordinates":[[126.50419,6.489605],[126.443817,6.560502],[126.373958,6.652292],[126.316821,6.732783],[126.259658,6.811674],[126.197804,6.947971]]}},{"type":"Feature","properties":{"name":"","desc":"approximate offshore projection"},"geometry":{"type":"LineString","coordinates":[[122.480787,8.695617],[122.412194,8.845153],[122.316143,9.013665],[122.277657,9.100649]]}},{"type":"Feature","properties":{"name":"","desc":"approximate offshore projection"},"geometry":{"type":"LineString","coordinates":[[126.380545,8.464442],[126.606284,8.368277],[126.734649,8.308326]]}},{"type":"Feature","properties":{"name":"","desc":"approximate offshore projection"},"geometry":{"type":"LineString","coordinates":[[125.443625,9.779336],[125.366467,9.859375],[125.313371,9.934187]]}}]}