{"type":"FeatureCollection","features":[{"type":"Feature","properties":{"name":"East Luzon Trough","desc":"Trench"},"geometry":{"type":"LineString","coordinates":[[122.6692,15.7217],[122.8656,16.1004],[123.0801,16.5581],[123.2065,16.9844],[123.3671,17.2842]]}},{"type":"Feature","properties":{"name":"East Luzon Transform Fault","desc":"Trench"},"geometry":{"type":"LineString","coordinates":[[122.6692,15.7217],[123.7452,15.588]]}},{"type":"Feature","properties":{"name":"Philippine Trench","desc":"Trench"},"geometry":{"type":"MultiLineString","coordinates":[[[128.9946,3.4509],[128.7808,3.7444],[128.5086,4.1749],[128.2556,4.6444],[128.1315,4.8761]],[[128.1486,4.8596],[128.1315,4.8761]],[[128.1315,4.8761],[128.1194,4.8988]],[[128.1315,4.8761],[127.9058,5.0946],[127.7211,5.3588],[127.3806,6.0043],[127.3408,6.4637],[127.3398,6.884],[127.3585,7.2162],[127.3092,7.5681],[127.2698,7.8809],[127.2495,8.2719],[127.1325,8.5848],[127.1128,8.751],[126.9562,9.4451],[126.829,10.0122],[126.6824,10.5597],[126.5364,10.8433],[126.439,11.0781],[126.3123,11.4106],[126.1853,11.8896],[126.1365,12.0363],[126.0295,12.2515],[125.8545,12.5157],[125.6697,12.8287],[125.6594,13.1024],[125.4844,13.3568],[125.387,13.5817],[125.2312,13.9338],[125.1434,14.2076],[125.1237,14.364],[125.0262,14.6183],[124.8416,14.8727],[124.57,15.0197],[124.3857,15.1178],[124.2401,15.2451],[123.9005,15.4704],[123.7452,15.588]]]}},{"type":"Feature","properties":{"name":"Cotabato Trench","desc":"Trench"},"geometry":{"type":"LineString","coordinates":[[123.6003,6.8611],[123.5623,6.5094],[123.5919,6.2748],[123.6117,6.0695],[123.7091,5.8446],[123.7969,5.6001],[123.9813,5.4337],[124.4856,5.2178],[124.7958,5.1293],[124.9704,5.0606],[125.0772,4.9431],[125.1455,4.7378],[125.1265,4.5521],[125.1076,4.3665],[125.0887,4.1515]]}},{"type":"Feature","properties":{"name":"Sulu Trench","desc":"Trench"},"geometry":{"type":"LineString","coordinates":[[121.818,10.4968],[121.897,10.1342],[121.8597,9.7906],[121.8607,9.5425],[121.9004,9.3135],[121.9986,9.0081],[122.019,8.76],[122.0195,8.6455],[121.9039,8.4928],[121.6335,8.2827],[121.4597,8.1491],[121.3252,7.8627],[121.0938,7.5954],[120.8235,7.3663],[120.1663,7.0034],[119.3735,6.6213]]}},{"type":"Feature","properties":{"name":"Negros Trench","desc":"Trench"},"geometry":{"type":"LineString","coordinates":[[120.9132,12.5933],[121.0492,12.4801],[121.1283,12.3774],[121.1691,12.2733],[121.2335,12.2229],[121.3662,12.1615],[121.4609,12.051],[121.5465,11.874],[121.6133,11.6586],[121.6465,11.5252],[121.6452,11.3612],[121.6436,11.1562],[121.6418,10.9205],[121.6974,10.7358],[121.7761,10.5819],[121.8212,10.51]]}},{"type":"Feature","properties":{"name":"Cotabato Trench","desc":"Trench"},"geometry":{"type":"MultiLineString","coordinates":[[[125.0791,4.0929],[125.0513,3.5457]],[[123.6103,7.1266],[123.5936,6.9231]],[[123.5963,7.3388],[123.6102,7.1656]]]}},{"type":"Feature","properties":{"name":"Manila Trench","desc":"Trench"},"geometry":{"type":"LineString","coordinates":[[120.0514,20.4972],[120.2477,19.9056],[120.3072,19.5621],[120.2114,19.3139],[119.9413,19.0275],[119.7292,18.7793],[119.6344,18.3021],[119.4417,18.0349],[119.1725,17.5576],[119.0773,17.1568],[119.0788,16.7941],[119.1579,16.4124],[119.1589,16.1834],[119.1015,15.9925],[119.0441,15.8207],[119.1423,15.5154],[119.008,15.2099],[119.0693,14.4465],[119.1096,14.0648],[119.2655,13.8549],[119.324,13.7786],[119.3246,13.645],[119.5965,13.4924],[119.6359,13.3207],[119.9081,13.1108],[120.1605,12.9773],[120.2506,12.9669],[120.4901,12.9393],[120.6653,12.7485],[120.8789,12.6341]]}}]}